ADRAS-J                 
1 58992U 24034A   24295.88732875  .00009811  00000+0  86193-3 0  9994
2 58992  98.2278 274.9229 0042077 354.6133   5.4628 14.96109665 36798
